start=new Date('2022-04-04T00:00:00.000Z').valueOf();
sats=[{"TLE_LINE1":"1 48302U 21036AC  22093.37871939 -.00002266  00000-0 -13328-3 0  9990","MEAN_MOTION_DOT":"-0.00002266","OBJECT_ID":"2021-036AC","ELEMENT_SET_NO":"999","DECAY_DATE":null,"TLE_LINE2":"2 48302  53.0559  59.4835 0002192  52.3536 307.7652 15.06386565 51683","INCLINATION":"53.0559","LAUNCH_DATE":"2021-04-29","EPOCH":"2022-04-03T09:05:21.355296","MEAN_ELEMENT_THEORY":"SGP4","PERIAPSIS":"545.737","MEAN_MOTION":"15.06386565","TIME_SYSTEM":"UTC","RA_OF_ASC_NODE":"59.4835","GP_ID":"200379097","REF_FRAME":"TEME","RCS_SIZE":"LARGE","NORAD_CAT_ID":"48302","APOAPSIS":"548.773","EPHEMERIS_TYPE":"0","CENTER_NAME":"EARTH","OBJECT_TYPE":"PAYLOAD","FILE":"3386965","SEMIMAJOR_AXIS":"6925.390","SITE":"AFETR","REV_AT_EPOCH":"5168","ECCENTRICITY":"0.00021920","BSTAR":"-0.00013328000000","ARG_OF_PERICENTER":"52.3536","CLASSIFICATION_TYPE":"U","OBJECT_NAME":"STARLINK-2556","PERIOD":"95.593","MEAN_ANOMALY":"307.7652","MEAN_MOTION_DDOT":"0.0000000000000","COUNTRY_CODE":"US"},{"FILE":"3386965","OBJECT_TYPE":"PAYLOAD","CENTER_NAME":"EARTH","EPHEMERIS_TYPE":"0","NORAD_CAT_ID":"48303","APOAPSIS":"548.513","RCS_SIZE":"LARGE","GP_ID":"200379847","REF_FRAME":"TEME","RA_OF_ASC_NODE":"57.4075","TIME_SYSTEM":"UTC","MEAN_MOTION":"15.06390061","PERIAPSIS":"545.975","MEAN_ELEMENT_THEORY":"SGP4","EPOCH":"2022-04-03T20:08:49.304256","INCLINATION":"53.0568","TLE_LINE2":"2 48303  53.0568  57.4075 0001832  44.9612 315.1526 15.06390061 51757","LAUNCH_DATE":"2021-04-29","DECAY_DATE":null,"ELEMENT_SET_NO":"999","OBJECT_ID":"2021-036AD","MEAN_MOTION_DOT":"-0.00000199","TLE_LINE1":"1 48303U 21036AD  22093.83945954 -.00000199  00000-0  55702-5 0  9997","COUNTRY_CODE":"US","MEAN_MOTION_DDOT":"0.0000000000000","MEAN_ANOMALY":"315.1526","PERIOD":"95.593","OBJECT_NAME":"STARLINK-2530","CLASSIFICATION_TYPE":"U","ARG_OF_PERICENTER":"44.9612","BSTAR":"0.00000557020000","ECCENTRICITY":"0.00018320","SITE":"AFETR","REV_AT_EPOCH":"5175","SEMIMAJOR_AXIS":"6925.379"},{"MEAN_MOTION_DOT":"0.00000470","OBJECT_ID":"2021-036AE","TLE_LINE1":"1 48304U 21036AE  22093.30499630  .00000470  00000-0  50469-4 0  9990","MEAN_MOTION":"15.06398733","PERIAPSIS":"545.832","MEAN_ELEMENT_THEORY":"SGP4","TLE_LINE2":"2 48304  53.0571  59.8085 0002000  55.7977 304.3201 15.06398733 51676","LAUNCH_DATE":"2021-04-29","INCLINATION":"53.0571","EPOCH":"2022-04-03T07:19:11.680320","DECAY_DATE":null,"ELEMENT_SET_NO":"999","APOAPSIS":"548.603","NORAD_CAT_ID":"48304","EPHEMERIS_TYPE":"0","RCS_SIZE":"LARGE","TIME_SYSTEM":"UTC","RA_OF_ASC_NODE":"59.8085","GP_ID":"200378595","REF_FRAME":"TEME","FILE":"3386965","OBJECT_TYPE":"PAYLOAD","CENTER_NAME":"EARTH","REV_AT_EPOCH":"5167","SITE":"AFETR","SEMIMAJOR_AXIS":"6925.352","BSTAR":"0.00005046900000","ECCENTRICITY":"0.00020000","ARG_OF_PERICENTER":"55.7977","CLASSIFICATION_TYPE":"U","MEAN_MOTION_DDOT":"0.0000000000000","COUNTRY_CODE":"US","OBJECT_NAME":"STARLINK-2524","MEAN_ANOMALY":"304.3201","PERIOD":"95.592"},{"ARG_OF_PERICENTER":"51.1731","CLASSIFICATION_TYPE":"U","MEAN_MOTION_DDOT":"0.0000000000000","COUNTRY_CODE":"US","OBJECT_NAME":"STARLINK-2519","PERIOD":"95.593","MEAN_ANOMALY":"308.9415","REV_AT_EPOCH":"5172","SITE":"AFETR","SEMIMAJOR_AXIS":"6925.384","BSTAR":"-0.00002722700000","ECCENTRICITY":"0.00017520","NORAD_CAT_ID":"48305","APOAPSIS":"548.462","EPHEMERIS_TYPE":"0","RCS_SIZE":"LARGE","TIME_SYSTEM":"UTC","REF_FRAME":"TEME","GP_ID":"200378845","RA_OF_ASC_NODE":"58.3239","FILE":"3386965","CENTER_NAME":"EARTH","OBJECT_TYPE":"PAYLOAD","MEAN_MOTION_DOT":"-0.00000687","OBJECT_ID":"2021-036AF","TLE_LINE1":"1 48305U 21036AF  22093.63304910 -.00000687  00000-0 -27227-4 0  9991","PERIAPSIS":"546.036","MEAN_MOTION":"15.06388484","MEAN_ELEMENT_THEORY":"SGP4","TLE_LINE2":"2 48305  53.0562  58.3239 0001752  51.1731 308.9415 15.06388484 51728","INCLINATION":"53.0562","LAUNCH_DATE":"2021-04-29","EPOCH":"2022-04-03T15:11:35.442240","ELEMENT_SET_NO":"999","DECAY_DATE":null},{"MEAN_MOTION_DOT":"-0.00001937","OBJECT_ID":"2021-036AG","TLE_LINE1":"1 48306U 21036AG  22093.62936417 -.00001937  00000-0 -11120-3 0  9997","MEAN_MOTION":"15.06388940","PERIAPSIS":"546.126","MEAN_ELEMENT_THEORY":"SGP4","INCLINATION":"53.0553","TLE_LINE2":"2 48306  53.0553  58.3471 0001620  50.3080 309.8052 15.06388940 51723","LAUNCH_DATE":"2021-04-29","EPOCH":"2022-04-03T15:06:17.064288","ELEMENT_SET_NO":"999","DECAY_DATE":null,"APOAPSIS":"548.369","NORAD_CAT_ID":"48306","EPHEMERIS_TYPE":"0","RCS_SIZE":"LARGE","TIME_SYSTEM":"UTC","RA_OF_ASC_NODE":"58.3471","GP_ID":"200379597","REF_FRAME":"TEME","FILE":"3386965","OBJECT_TYPE":"PAYLOAD","CENTER_NAME":"EARTH","SITE":"AFETR","REV_AT_EPOCH":"5172","SEMIMAJOR_AXIS":"6925.382","BSTAR":"-0.00011120000000","ECCENTRICITY":"0.00016200","ARG_OF_PERICENTER":"50.3080","CLASSIFICATION_TYPE":"U","MEAN_MOTION_DDOT":"0.0000000000000","COUNTRY_CODE":"US","OBJECT_NAME":"STARLINK-2523","PERIOD":"95.593","MEAN_ANOMALY":"309.8052"},{"SEMIMAJOR_AXIS":"6925.400","SITE":"AFETR","REV_AT_EPOCH":"5172","ECCENTRICITY":"0.00018000","BSTAR":"-0.00012972000000","ARG_OF_PERICENTER":"60.0961","CLASSIFICATION_TYPE":"U","OBJECT_NAME":"STARLINK-2528","MEAN_ANOMALY":"300.0207","PERIOD":"95.593","MEAN_MOTION_DDOT":"0.0000000000000","COUNTRY_CODE":"US","TLE_LINE1":"1 48307U 21036AH  22093.62568574 -.00002212  00000-0 -12972-3 0  9996","MEAN_MOTION_DOT":"-0.00002212","OBJECT_ID":"2021-036AH","DECAY_DATE":null,"ELEMENT_SET_NO":"999","MEAN_ELEMENT_THEORY":"SGP4","PERIAPSIS":"546.018","MEAN_MOTION":"15.06383216","TLE_LINE2":"2 48307  53.0571  58.3622 0001800  60.0961 300.0207 15.06383216 51724","LAUNCH_DATE":"2021-04-29","INCLINATION":"53.0571","EPOCH":"2022-04-03T15:00:59.247936","RCS_SIZE":"LARGE","TIME_SYSTEM":"UTC","RA_OF_ASC_NODE":"58.3622","GP_ID":"200379348","REF_FRAME":"TEME","NORAD_CAT_ID":"48307","APOAPSIS":"548.512","EPHEMERIS_TYPE":"0","CENTER_NAME":"EARTH","OBJECT_TYPE":"PAYLOAD","FILE":"3386965"},{"CLASSIFICATION_TYPE":"U","ARG_OF_PERICENTER":"57.3711","MEAN_ANOMALY":"302.7451","PERIOD":"95.593","OBJECT_NAME":"STARLINK-2532","COUNTRY_CODE":"US","MEAN_MOTION_DDOT":"0.0000000000000","SEMIMAJOR_AXIS":"6925.404","SITE":"AFETR","REV_AT_EPOCH":"5176","ECCENTRICITY":"0.00017970","BSTAR":"-0.00001249300000","RCS_SIZE":"LARGE","REF_FRAME":"TEME","GP_ID":"200378096","RA_OF_ASC_NODE":"57.1879","TIME_SYSTEM":"UTC","EPHEMERIS_TYPE":"0","NORAD_CAT_ID":"48308","APOAPSIS":"548.513","CENTER_NAME":"EARTH","OBJECT_TYPE":"PAYLOAD","FILE":"3386965","TLE_LINE1":"1 48308U 21036AJ  22093.88738742 -.00000468  00000-0 -12493-4 0  9991","OBJECT_ID":"2021-036AJ","MEAN_MOTION_DOT":"-0.00000468","DECAY_DATE":null,"ELEMENT_SET_NO":"999","MEAN_ELEMENT_THEORY":"SGP4","PERIAPSIS":"546.024","MEAN_MOTION":"15.06382023","EPOCH":"2022-04-03T21:17:50.273088","TLE_LINE2":"2 48308  53.0551  57.1879 0001797  57.3711 302.7451 15.06382023 51760","INCLINATION":"53.0551","LAUNCH_DATE":"2021-04-29"},{"OBJECT_TYPE":"PAYLOAD","CENTER_NAME":"EARTH","FILE":"3386965","RCS_SIZE":"LARGE","GP_ID":"200378346","RA_OF_ASC_NODE":"59.8898","REF_FRAME":"TEME","TIME_SYSTEM":"UTC","EPHEMERIS_TYPE":"0","APOAPSIS":"548.351","NORAD_CAT_ID":"48309","DECAY_DATE":null,"ELEMENT_SET_NO":"999","MEAN_ELEMENT_THEORY":"SGP4","PERIAPSIS":"546.081","MEAN_MOTION":"15.06399345","EPOCH":"2022-04-03T06:52:38.850528","TLE_LINE2":"2 48309  53.0556  59.8898 0001639  60.7332 299.3820 15.06399345 51674","INCLINATION":"53.0556","LAUNCH_DATE":"2021-04-29","TLE_LINE1":"1 48309U 21036AK  22093.28656077 -.00000656  00000-0 -25165-4 0  9995","OBJECT_ID":"2021-036AK","MEAN_MOTION_DOT":"-0.00000656","PERIOD":"95.592","MEAN_ANOMALY":"299.3820","OBJECT_NAME":"STARLINK-2517","COUNTRY_CODE":"US","MEAN_MOTION_DDOT":"0.0000000000000","CLASSIFICATION_TYPE":"U","ARG_OF_PERICENTER":"60.7332","ECCENTRICITY":"0.00016390","BSTAR":"-0.00002516500000","SEMIMAJOR_AXIS":"6925.351","SITE":"AFETR","REV_AT_EPOCH":"5167"},{"CLASSIFICATION_TYPE":"U","ARG_OF_PERICENTER":"71.8658","COUNTRY_CODE":"US","MEAN_MOTION_DDOT":"0.0000000000000","MEAN_ANOMALY":"288.2463","PERIOD":"95.593","OBJECT_NAME":"STARLINK-2536","REV_AT_EPOCH":"5172","SITE":"AFETR","SEMIMAJOR_AXIS":"6925.383","BSTAR":"0.00008879400000","ECCENTRICITY":"0.00012090","EPHEMERIS_TYPE":"0","NORAD_CAT_ID":"48310","APOAPSIS":"548.085","GP_ID":"200379098","RA_OF_ASC_NODE":"58.4029","REF_FRAME":"TEME","TIME_SYSTEM":"UTC","RCS_SIZE":"LARGE","FILE":"3386965","OBJECT_TYPE":"PAYLOAD","CENTER_NAME":"EARTH","OBJECT_ID":"2021-036AL","MEAN_MOTION_DOT":"0.00001041","TLE_LINE1":"1 48310U 21036AL  22093.61461720  .00001041  00000-0  88794-4 0  9997","EPOCH":"2022-04-03T14:45:02.926080","INCLINATION":"53.0552","TLE_LINE2":"2 48310  53.0552  58.4029 0001209  71.8658 288.2463 15.06388914 51726","LAUNCH_DATE":"2021-04-29","MEAN_ELEMENT_THEORY":"SGP4","PERIAPSIS":"546.410","MEAN_MOTION":"15.06388914","DECAY_DATE":null,"ELEMENT_SET_NO":"999"},{"TLE_LINE1":"1 48311U 21036AM  22093.87632142  .00000887  00000-0  78485-4 0  9997","OBJECT_ID":"2021-036AM","MEAN_MOTION_DOT":"0.00000887","ELEMENT_SET_NO":"999","DECAY_DATE":null,"PERIAPSIS":"546.145","MEAN_MOTION":"15.06383168","MEAN_ELEMENT_THEORY":"SGP4","EPOCH":"2022-04-03T21:01:54.170688","LAUNCH_DATE":"2021-04-29","TLE_LINE2":"2 48311  53.0549  57.2391 0001617  69.2144 290.9018 15.06383168 51762","INCLINATION":"53.0549","RCS_SIZE":"LARGE","GP_ID":"200379848","REF_FRAME":"TEME","RA_OF_ASC_NODE":"57.2391","TIME_SYSTEM":"UTC","EPHEMERIS_TYPE":"0","NORAD_CAT_ID":"48311","APOAPSIS":"548.385","OBJECT_TYPE":"PAYLOAD","CENTER_NAME":"EARTH","FILE":"3386965","SEMIMAJOR_AXIS":"6925.400","SITE":"AFETR","REV_AT_EPOCH":"5176","ECCENTRICITY":"0.00016170","BSTAR":"0.00007848500000","CLASSIFICATION_TYPE":"U","ARG_OF_PERICENTER":"69.2144","PERIOD":"95.593","MEAN_ANOMALY":"290.9018","OBJECT_NAME":"STARLINK-2534","COUNTRY_CODE":"US","MEAN_MOTION_DDOT":"0.0000000000000"}];
